{
  "links" : {
    "next" : "https://api.nasa.gov/neo/rest/v1/feed?start_date=2005-09-23&end_date=2005-09-23&detailed=true&api_key=t0TVs3DtDT2H8Oy2Zy8m2eVrNsAVKAexjcZXUckd",
    "prev" : "https://api.nasa.gov/neo/rest/v1/feed?start_date=2005-09-21&end_date=2005-09-21&detailed=true&api_key=t0TVs3DtDT2H8Oy2Zy8m2eVrNsAVKAexjcZXUckd",
    "self" : "https://api.nasa.gov/neo/rest/v1/feed?start_date=2005-09-22&end_date=2005-09-22&detailed=true&api_key=t0TVs3DtDT2H8Oy2Zy8m2eVrNsAVKAexjcZXUckd"
  },
  "element_count" : 7,
  "near_earth_objects" : {
    "2005-09-22" : [ {
      "links" : {
        "self" : "https://api.nasa.gov/neo/rest/v1/neo/2099935?api_key=t0TVs3DtDT2H8Oy2Zy8m2eVrNsAVKAexjcZXUckd"
      },
      "neo_reference_id" : "2099935",
      "name" : "99935 (2002 AV4)",
      "nasa_jpl_url" : "http://ssd.jpl.nasa.gov/sbdb.cgi?sstr=2099935",
      "absolute_magnitude_h" : 16.0,
      "estimated_diameter" : {
        "kilometers" : {
          "estimated_diameter_min" : 1.6770846216,
          "estimated_diameter_max" : 3.750075218
        },
        "meters" : {
          "estimated_diameter_min" : 1677.0846216284,
          "estimated_diameter_max" : 3750.0752179805
        },
        "miles" : {
          "estimated_diameter_min" : 1.0420917484,
          "estimated_diameter_max" : 2.3301879883
        },
        "feet" : {
          "estimated_diameter_min" : 5502.2463100232,
          "estimated_diameter_max" : 12303.3967781592
        }
      },
      "is_potentially_hazardous_asteroid" : false,
      "close_approach_data" : [ {
        "close_approach_date" : "2005-09-22",
        "epoch_date_close_approach" : 1127372400000,
        "relative_velocity" : {
          "kilometers_per_second" : "20.5002045564",
          "kilometers_per_hour" : "73800.736403188",
          "miles_per_hour" : "45856.9075723031"
        },
        "miss_distance" : {
          "astronomical" : "0.4032740325",
          "lunar" : "156.8735961914",
          "kilometers" : "60328936",
          "miles" : "37486664"
        },
        "orbiting_body" : "Earth"
      } ],
      "orbital_data" : {
        "orbit_id" : "212",
        "orbit_determination_date" : "2017-04-06 09:28:12",
        "orbit_uncertainty" : "0",
        "minimum_orbit_intersection" : ".167756",
        "jupiter_tisserand_invariant" : "3.986",
        "epoch_osculation" : "2458000.5",
        "eccentricity" : ".6449498583803954",
        "semi_major_axis" : "1.654296222042958",
        "inclination" : "12.77196041347827",
        "ascending_node_longitude" : "16.37189055485594",
        "orbital_period" : "777.1741444631883",
        "perihelion_distance" : ".5873581079171291",
        "perihelion_argument" : "322.9712554544551",
        "aphelion_distance" : "2.721234336168787",
        "perihelion_time" : "2458288.453218179761",
        "mean_anomaly" : "226.6152762759287",
        "mean_motion" : ".4632166452843849",
        "equinox" : "J2000"
      }
    }, {
      "links" : {
        "self" : "https://api.nasa.gov/neo/rest/v1/neo/2153271?api_key=t0TVs3DtDT2H8Oy2Zy8m2eVrNsAVKAexjcZXUckd"
      },
      "neo_reference_id" : "2153271",
      "name" : "153271 (2001 CL42)",
      "nasa_jpl_url" : "http://ssd.jpl.nasa.gov/sbdb.cgi?sstr=2153271",
      "absolute_magnitude_h" : 17.2,
      "estimated_diameter" : {
        "kilometers" : {
          "estimated_diameter_min" : 0.9650614696,
          "estimated_diameter_max" : 2.1579430484
        },
        "meters" : {
          "estimated_diameter_min" : 965.0614695789,
          "estimated_diameter_max" : 2157.9430484443
        },
        "miles" : {
          "estimated_diameter_min" : 0.5996612104,
          "estimated_diameter_max" : 1.34088323
        },
        "feet" : {
          "estimated_diameter_min" : 3166.2122718533,
          "estimated_diameter_max" : 7079.8658710581
        }
      },
      "is_potentially_hazardous_asteroid" : false,
      "close_approach_data" : [ {
        "close_approach_date" : "2005-09-22",
        "epoch_date_close_approach" : 1127372400000,
        "relative_velocity" : {
          "kilometers_per_second" : "11.2056278046",
          "kilometers_per_hour" : "40340.2600965607",
          "miles_per_hour" : "25065.8688361102"
        },
        "miss_distance" : {
          "astronomical" : "0.4369061143",
          "lunar" : "169.9564819336",
          "kilometers" : "65360228",
          "miles" : "40612964"
        },
        "orbiting_body" : "Earth"
      } ],
      "orbital_data" : {
        "orbit_id" : "175",
        "orbit_determination_date" : "2017-04-06 09:27:07",
        "orbit_uncertainty" : "0",
        "minimum_orbit_intersection" : ".192174",
        "jupiter_tisserand_invariant" : "4.272",
        "epoch_osculation" : "2458000.5",
        "eccentricity" : ".4023364576940164",
        "semi_major_axis" : "1.557179466248208",
        "inclination" : "21.65458955007368",
        "ascending_node_longitude" : "12.07415521830127",
        "orbital_period" : "709.7516801183687",
        "perihelion_distance" : ".9306693958040446",
        "perihelion_argument" : "270.803606312047",
        "aphelion_distance" : "2.183689536692371",
        "perihelion_time" : "2457802.412936624139",
        "mean_anomaly" : "100.4736512964889",
        "mean_motion" : ".5072196517237706",
        "equinox" : "J2000"
      }
    }, {
      "links" : {
        "self" : "https://api.nasa.gov/neo/rest/v1/neo/3288440?api_key=t0TVs3DtDT2H8Oy2Zy8m2eVrNsAVKAexjcZXUckd"
      },
      "neo_reference_id" : "3288440",
      "name" : "(2005 PH2)",
      "nasa_jpl_url" : "http://ssd.jpl.nasa.gov/sbdb.cgi?sstr=3288440",
      "absolute_magnitude_h" : 20.4,
      "estimated_diameter" : {
        "kilometers" : {
          "estimated_diameter_min" : 0.2210828104,
          "estimated_diameter_max" : 0.4943561926
        },
        "meters" : {
          "estimated_diameter_min" : 221.0828103591,
          "estimated_diameter_max" : 494.3561926196
        },
        "miles" : {
          "estimated_diameter_min" : 0.137374447,
          "estimated_diameter_max" : 0.3071786018
        },
        "feet" : {
          "estimated_diameter_min" : 725.3373275385,
          "estimated_diameter_max" : 1621.9035709942
        }
      },
      "is_potentially_hazardous_asteroid" : false,
      "close_approach_data" : [ {
        "close_approach_date" : "2005-09-22",
        "epoch_date_close_approach" : 1127372400000,
        "relative_velocity" : {
          "kilometers_per_second" : "11.3508847507",
          "kilometers_per_hour" : "40863.1851024246",
          "miles_per_hour" : "25390.7940987816"
        },
        "miss_distance" : {
          "astronomical" : "0.260587409",
          "lunar" : "101.3684997559",
          "kilometers" : "38983320",
          "miles" : "24223112"
        },
        "orbiting_body" : "Earth"
      } ],
      "orbital_data" : {
        "orbit_id" : "25",
        "orbit_determination_date" : "2017-04-06 09:10:41",
        "orbit_uncertainty" : "1",
        "minimum_orbit_intersection" : ".0906871",
        "jupiter_tisserand_invariant" : "4.485",
        "epoch_osculation" : "2458000.5",
        "eccentricity" : ".6042344362209264",
        "semi_major_axis" : "1.42318441825118",
        "inclination" : "5.757032313972039",
        "ascending_node_longitude" : "96.44624130787687",
        "orbital_period" : "620.1406458262044",
        "perihelion_distance" : ".5632473836507712",
        "perihelion_argument" : "343.4988284792796",
        "aphelion_distance" : "2.28312145285159",
        "perihelion_time" : "2458023.829487054704",
        "mean_anomaly" : "346.4569184487106",
        "mean_motion" : ".5805134729080323",
        "equinox" : "J2000"
      }
    } ]
  }
}